{
  "type": "FeatureCollection",
  "features": [
    {
      "type": "Feature",
      "properties": {
        "norad_id": 36528,
        "name": "COSMOS 2251 DEB",
        "group": "cosmos-2251-debris",
        "lat": 22.646583113367694,
        "lon": -26.917908121827793,
        "alt_km": 753.4807790509703,
        "timestamp": "2025-12-04T15:47:54.496562+00:00",
        "meta_object_name": "COSMOS 2251 DEB",
        "meta_object_id": "1993-036BCN",
        "meta_epoch": "2025-11-28T19:45:32.756256",
        "meta_mean_motion": 14.30521775,
        "meta_eccentricity": 0.00858193,
        "meta_inclination": 74.0168,
        "meta_ra_of_asc_node": 170.5765,
        "meta_arg_of_pericenter": 223.2164,
        "meta_mean_anomaly": 136.2231,
        "meta_ephemeris_type": 0,
        "meta_classification_type": "U",
        "meta_norad_cat_id": 36528,
        "meta_element_set_no": 999,
        "meta_rev_at_epoch": 64228,
        "meta_bstar": 0.00075224171,
        "meta_mean_motion_dot": 2.015e-05,
        "meta_mean_motion_ddot": 0,
        "tle_line1": "1 36528U 93036BCN 25332.82329579  .00002015  00000+0  75224-3 0  9995",
        "tle_line2": "2 36528  74.0168 170.5765 0085819 223.2164 136.2231 14.30521775642289"
      },
      "geometry": {
        "type": "Point",
        "coordinates": [
          -26.917908121827793,
          22.646583113367694
        ]
      }
    },
    {
      "type": "Feature",
      "properties": {
        "norad_id": 36533,
        "name": "COSMOS 2251 DEB",
        "group": "cosmos-2251-debris",
        "lat": 58.57035503379348,
        "lon": -77.96048626578828,
        "alt_km": 753.7401388950902,
        "timestamp": "2025-12-04T15:47:54.496572+00:00",
        "meta_object_name": "COSMOS 2251 DEB",
        "meta_object_id": "1993-036BCT",
        "meta_epoch": "2025-12-04T03:39:46.792224",
        "meta_mean_motion": 14.49765129,
        "meta_eccentricity": 0.00490493,
        "meta_inclination": 74.0108,
        "meta_ra_of_asc_node": 130.9716,
        "meta_arg_of_pericenter": 281.613,
        "meta_mean_anomaly": 77.9527,
        "meta_ephemeris_type": 0,
        "meta_classification_type": "U",
        "meta_norad_cat_id": 36533,
        "meta_element_set_no": 999,
        "meta_rev_at_epoch": 84360,
        "meta_bstar": 0.00080793956,
        "meta_mean_motion_dot": 3.134e-05,
        "meta_mean_motion_ddot": 0,
        "tle_line1": "1 36533U 93036BCT 25338.15262491  .00003134  00000+0  80794-3 0  9993",
        "tle_line2": "2 36533  74.0108 130.9716 0049049 281.6130  77.9527 14.49765129843602"
      },
      "geometry": {
        "type": "Point",
        "coordinates": [
          -77.96048626578828,
          58.57035503379348
        ]
      }
    },
    {
      "type": "Feature",
      "properties": {
        "norad_id": 36539,
        "name": "COSMOS 2251 DEB",
        "group": "cosmos-2251-debris",
        "lat": 41.498968117154945,
        "lon": 85.2763838248135,
        "alt_km": 711.5005692009772,
        "timestamp": "2025-12-04T15:47:54.496582+00:00",
        "meta_object_name": "COSMOS 2251 DEB",
        "meta_object_id": "1993-036BCZ",
        "meta_epoch": "2025-12-04T07:22:17.181120",
        "meta_mean_motion": 14.59207396,
        "meta_eccentricity": 0.00277135,
        "meta_inclination": 74.0244,
        "meta_ra_of_asc_node": 71.2645,
        "meta_arg_of_pericenter": 217.6193,
        "meta_mean_anomaly": 142.3035,
        "meta_ephemeris_type": 0,
        "meta_classification_type": "U",
        "meta_norad_cat_id": 36539,
        "meta_element_set_no": 999,
        "meta_rev_at_epoch": 83824,
        "meta_bstar": 0.0018301533,
        "meta_mean_motion_dot": 8.659e-05,
        "meta_mean_motion_ddot": 0,
        "tle_line1": "1 36539U 93036BCZ 25338.30714330  .00008659  00000+0  18302-2 0  9992",
        "tle_line2": "2 36539  74.0244  71.2645 0027713 217.6193 142.3035 14.59207396838242"
      },
      "geometry": {
        "type": "Point",
        "coordinates": [
          85.2763838248135,
          41.498968117154945
        ]
      }
    },
    {
      "type": "Feature",
      "properties": {
        "norad_id": 36540,
        "name": "COSMOS 2251 DEB",
        "group": "cosmos-2251-debris",
        "lat": 28.620397937655227,
        "lon": -155.10432283830102,
        "alt_km": 702.8057289571498,
        "timestamp": "2025-12-04T15:47:54.496592+00:00",
        "meta_object_name": "COSMOS 2251 DEB",
        "meta_object_id": "1993-036BDA",
        "meta_epoch": "2025-12-03T21:33:06.393888",
        "meta_mean_motion": 14.58350554,
        "meta_eccentricity": 0.0015358,
        "meta_inclination": 74.0291,
        "meta_ra_of_asc_node": 197.3519,
        "meta_arg_of_pericenter": 268.0064,
        "meta_mean_anomaly": 91.9342,
        "meta_ephemeris_type": 0,
        "meta_classification_type": "U",
        "meta_norad_cat_id": 36540,
        "meta_element_set_no": 999,
        "meta_rev_at_epoch": 85881,
        "meta_bstar": 0.0020391,
        "meta_mean_motion_dot": 9.439e-05,
        "meta_mean_motion_ddot": 0,
        "tle_line1": "1 36540U 93036BDA 25337.89799067  .00009439  00000+0  20391-2 0  9995",
        "tle_line2": "2 36540  74.0291 197.3519 0015358 268.0064  91.9342 14.58350554858814"
      },
      "geometry": {
        "type": "Point",
        "coordinates": [
          -155.10432283830102,
          28.620397937655227
        ]
      }
    },
    {
      "type": "Feature",
      "properties": {
        "norad_id": 36550,
        "name": "COSMOS 2251 DEB",
        "group": "cosmos-2251-debris",
        "lat": 54.795252884588656,
        "lon": -128.71878331126308,
        "alt_km": 848.2523732096988,
        "timestamp": "2025-12-04T15:47:54.496603+00:00",
        "meta_object_name": "COSMOS 2251 DEB",
        "meta_object_id": "1993-036BDL",
        "meta_epoch": "2025-12-02T08:00:24.910560",
        "meta_mean_motion": 14.27149643,
        "meta_eccentricity": 0.00787603,
        "meta_inclination": 74.0451,
        "meta_ra_of_asc_node": 211.5637,
        "meta_arg_of_pericenter": 264.4889,
        "meta_mean_anomaly": 94.7272,
        "meta_ephemeris_type": 0,
        "meta_classification_type": "U",
        "meta_norad_cat_id": 36550,
        "meta_element_set_no": 999,
        "meta_rev_at_epoch": 84447,
        "meta_bstar": 0.00078484278,
        "meta_mean_motion_dot": 1.953e-05,
        "meta_mean_motion_ddot": 0,
        "tle_line1": "1 36550U 93036BDL 25336.33362165  .00001953  00000+0  78484-3 0  9999",
        "tle_line2": "2 36550  74.0451 211.5637 0078760 264.4889  94.7272 14.27149643844475"
      },
      "geometry": {
        "type": "Point",
        "coordinates": [
          -128.71878331126308,
          54.795252884588656
        ]
      }
    },
    {
      "type": "Feature",
      "properties": {
        "norad_id": 36551,
        "name": "COSMOS 2251 DEB",
        "group": "cosmos-2251-debris",
        "lat": 73.85460667648688,
        "lon": 118.2171708483227,
        "alt_km": 563.4063645278866,
        "timestamp": "2025-12-04T15:47:54.496613+00:00",
        "meta_object_name": "COSMOS 2251 DEB",
        "meta_object_id": "1993-036BDM",
        "meta_epoch": "2025-12-01T04:16:57.552096",
        "meta_mean_motion": 15.01965558,
        "meta_eccentricity": 0.00505004,
        "meta_inclination": 73.8879,
        "meta_ra_of_asc_node": 38.501,
        "meta_arg_of_pericenter": 349.5182,
        "meta_mean_anomaly": 10.4947,
        "meta_ephemeris_type": 0,
        "meta_classification_type": "U",
        "meta_norad_cat_id": 36551,
        "meta_element_set_no": 999,
        "meta_rev_at_epoch": 66758,
        "meta_bstar": 0.0014137691,
        "meta_mean_motion_dot": 0.00019039,
        "meta_mean_motion_ddot": 0,
        "tle_line1": "1 36551U 93036BDM 25335.17844389  .00019039  00000+0  14138-2 0  9993",
        "tle_line2": "2 36551  73.8879  38.5010 0050500 349.5182  10.4947 15.01965558667585"
      },
      "geometry": {
        "type": "Point",
        "coordinates": [
          118.2171708483227,
          73.85460667648688
        ]
      }
    },
    {
      "type": "Feature",
      "properties": {
        "norad_id": 36557,
        "name": "COSMOS 2251 DEB",
        "group": "cosmos-2251-debris",
        "lat": 57.15000370398727,
        "lon": 168.5965662882528,
        "alt_km": 640.4568887315863,
        "timestamp": "2025-12-04T15:47:54.496623+00:00",
        "meta_object_name": "COSMOS 2251 DEB",
        "meta_object_id": "1993-036BDT",
        "meta_epoch": "2025-11-29T20:08:28.959648",
        "meta_mean_motion": 14.77361907,
        "meta_eccentricity": 0.00205231,
        "meta_inclination": 73.9794,
        "meta_ra_of_asc_node": 151.6562,
        "meta_arg_of_pericenter": 302.0455,
        "meta_mean_anomaly": 57.8725,
        "meta_ephemeris_type": 0,
        "meta_classification_type": "U",
        "meta_norad_cat_id": 36557,
        "meta_element_set_no": 999,
        "meta_rev_at_epoch": 33706,
        "meta_bstar": 0.0024129009,
        "meta_mean_motion_dot": 0.00017224,
        "meta_mean_motion_ddot": 0,
        "tle_line1": "1 36557U 93036BDT 25333.83922407  .00017224  00000+0  24129-2 0  9993",
        "tle_line2": "2 36557  73.9794 151.6562 0020523 302.0455  57.8725 14.77361907337062"
      },
      "geometry": {
        "type": "Point",
        "coordinates": [
          168.5965662882528,
          57.15000370398727
        ]
      }
    }
  ]
}